{
  "norad_id": 57860,
  "name": "STARLINK-30272",
  "history": [
    {
      "epoch": "2026-03-28T14:26:19.898016Z",
      "apogee_km": 475.59997504881903,
      "perigee_km": 474.76249956022093,
      "latitude_deg": 2.3504701097805164e-06,
      "longitude_deg": 153.6634746088116,
      "height_km": 475.8397568369446,
      "semi_major_axis_km": 6853.31823730452,
      "eccentricity": 6.11e-05,
      "inclination_deg": 53.16,
      "raan_deg": 196.2661,
      "arg_perigee_deg": 54.933,
      "mean_anomaly_deg": 305.1728,
      "mean_motion_rev_day": 15.30211331
    },
    {
      "epoch": "2026-03-28T23:50:38.992704Z",
      "apogee_km": 475.74500744039506,
      "perigee_km": 474.77319587317925,
      "latitude_deg": 5.9576812475256974e-06,
      "longitude_deg": 10.378853830178775,
      "height_km": 476.14347229447316,
      "semi_major_axis_km": 6853.396101656786,
      "eccentricity": 7.09e-05,
      "inclination_deg": 53.1605,
      "raan_deg": 194.4473,
      "arg_perigee_deg": 88.29,
      "mean_anomaly_deg": 271.8182,
      "mean_motion_rev_day": 15.30185253
    },
    {
      "epoch": "2026-03-29T23:21:28.473408Z",
      "apogee_km": 475.89657351281676,
      "perigee_km": 474.66487727920776,
      "latitude_deg": 3.440341081964767e-05,
      "longitude_deg": 12.155430735797156,
      "height_km": 476.1499304301403,
      "semi_major_axis_km": 6853.4177253960115,
      "eccentricity": 8.986e-05,
      "inclination_deg": 53.1612,
      "raan_deg": 189.8957,
      "arg_perigee_deg": 87.2556,
      "mean_anomaly_deg": 272.8548,
      "mean_motion_rev_day": 15.30178011
    },
    {
      "epoch": "2026-03-30T13:27:54.206784Z",
      "apogee_km": 475.8381503460514,
      "perigee_km": 474.34949154712467,
      "latitude_deg": -1.4310636153041601e-05,
      "longitude_deg": 157.23921271685614,
      "height_km": 476.0086007792272,
      "semi_major_axis_km": 6853.230820946587,
      "eccentricity": 0.00010861,
      "inclination_deg": 53.1606,
      "raan_deg": 187.1661,
      "arg_perigee_deg": 91.2604,
      "mean_anomaly_deg": 268.8521,
      "mean_motion_rev_day": 15.30240609
    },
    {
      "epoch": "2026-03-31T14:32:49.056576Z",
      "apogee_km": 476.21464765681867,
      "perigee_km": 474.34777653584297,
      "latitude_deg": -2.354986504834707e-05,
      "longitude_deg": 135.1244892493103,
      "height_km": 476.40334718081795,
      "semi_major_axis_km": 6853.4182120963305,
      "eccentricity": 0.0001362,
      "inclination_deg": 53.1609,
      "raan_deg": 182.31,
      "arg_perigee_deg": 103.8878,
      "mean_anomaly_deg": 256.2274,
      "mean_motion_rev_day": 15.30177848
    },
    {
      "epoch": "2026-04-01T12:29:32.460576Z",
      "apogee_km": 476.13432633121374,
      "perigee_km": 474.2291037284367,
      "latitude_deg": 1.2962790013170376e-05,
      "longitude_deg": 160.79390250466562,
      "height_km": 476.1964644604529,
      "semi_major_axis_km": 6853.318715029825,
      "eccentricity": 0.000139,
      "inclination_deg": 53.1602,
      "raan_deg": 178.0615,
      "arg_perigee_deg": 97.043,
      "mean_anomaly_deg": 263.0729,
      "mean_motion_rev_day": 15.30211171
    }
  ]
}